0 FENGYUN 1C DEB
1 30529U 99025AJT 13283.11296241  .00000791  00000-0  86156-3 0  4774
2 30529 098.4753 339.4500 0253406 133.1327 258.0911 13.62136914333642
0 FENGYUN 1C DEB
1 30529U 99025AJT 13284.14689082  .00000844  00000-0  91682-3 0  4787
2 30529 098.4751 340.3499 0253366 130.4218 288.1423 13.62138135333786
0 FENGYUN 1C DEB
1 30529U 99025AJT 13285.41035226  .00000731  00000-0  79881-3 0  4796
2 30529 098.4750 341.4497 0253302 127.1138 003.7540 13.62140100333954
0 FENGYUN 1C DEB
1 30529U 99025AJT 13286.66313941  .00000751  00000-0  81943-3 0  4803
2 30529 098.4747 342.5402 0253241 123.8297 027.0356 13.62142073334124
0 FENGYUN 1C DEB
1 30529U 99025AJT 13288.11494689  .00001115  00000-0  12002-2 0  4819
2 30529 098.4744 343.8040 0253184 120.0192 306.2683 13.62146008334321
0 FENGYUN 1C DEB
1 30529U 99025AJT 13289.14147190  .00000938  00000-0  10153-2 0  4823
2 30529 098.4741 344.6975 0253113 117.3291 300.0490 13.62148573334467
0 FENGYUN 1C DEB
1 30529U 99025AJT 13290.69764289  .00000890  00000-0  96503-3 0  4831
2 30529 098.4738 346.0520 0253032 113.2466 011.0812 13.62151460334673
0 FENGYUN 1C DEB
1 30529U 99025AJT 13292.15430662  .00000910  00000-0  98650-3 0  4848
2 30529 098.4735 347.3197 0252935 109.4248 314.1748 13.62153565334875
0 FENGYUN 1C DEB
1 30529U 99025AJT 13294.13610866  .00000923  00000-0  10002-2 0  4853
2 30529 098.4736 349.0444 0252827 104.2215 312.4325 13.62157824335142
0 FENGYUN 1C DEB
1 30529U 99025AJT 13295.82888166  .00000997  00000-0  10777-2 0  4861
2 30529 098.4737 350.5176 0252696 099.7779 333.3878 13.62160915335374
